{"type":"FeatureCollection","attribution":"© OpenStreetMap contributors (ODbL)","features":[{"type":"Feature","properties":{"id":"node/433845957","power":"transformer","kv":0,"name":"Trafo 411","operator":null},"geometry":{"type":"Point","coordinates":[7.5929303,50.3861451]}},{"type":"Feature","properties":{"id":"node/1726379057","power":"transformer","kv":0,"name":null,"operator":null},"geometry":{"type":"Point","coordinates":[7.5927395,50.386598]}},{"type":"Feature","properties":{"id":"node/1726379090","power":"transformer","kv":0,"name":null,"operator":null},"geometry":{"type":"Point","coordinates":[7.591941,50.3874504]}},{"type":"Feature","properties":{"id":"node/1726379095","power":"transformer","kv":0,"name":null,"operator":null},"geometry":{"type":"Point","coordinates":[7.5920857,50.3875702]}},{"type":"Feature","properties":{"id":"node/9984665322","power":"transformer","kv":0,"name":null,"operator":null},"geometry":{"type":"Point","coordinates":[7.6402274,50.3855195]}},{"type":"Feature","properties":{"id":"node/9984665325","power":"transformer","kv":0,"name":null,"operator":null},"geometry":{"type":"Point","coordinates":[7.6402416,50.3849772]}},{"type":"Feature","properties":{"id":"node/9984665341","power":"transformer","kv":0,"name":null,"operator":null},"geometry":{"type":"Point","coordinates":[7.5926935,50.3863608]}},{"type":"Feature","properties":{"id":"node/9984665349","power":"transformer","kv":0,"name":null,"operator":null},"geometry":{"type":"Point","coordinates":[7.5927623,50.3869883]}},{"type":"Feature","properties":{"id":"way/37090208","power":"line","kv":380,"name":null,"operator":"RWE"},"geometry":{"type":"LineString","coordinates":[[7.4628056,50.4027529],[7.4664517,50.4020593],[7.4707395,50.4009821],[7.4745824,50.4000094],[7.4792504,50.3988242],[7.483686,50.3977079],[7.4883624,50.3965153],[7.4923927,50.3954918],[7.4967762,50.3944009],[7.5012341,50.3932621],[7.5051235,50.3922653],[7.5096508,50.3911212],[7.5138933,50.3900579],[7.5182323,50.3889462],[7.5225742,50.387845],[7.5271592,50.3866788],[7.5315239,50.385567],[7.535881,50.3855629],[7.5405332,50.3855491],[7.5453942,50.3855315],[7.5498639,50.3855343],[7.5545373,50.3855254],[7.5589192,50.3855122],[7.563772,50.3855046],[7.5685269,50.3854902],[7.5732178,50.3854783],[7.5771581,50.3854865],[7.582313,50.3854632],[7.5862869,50.3862557],[7.5904618,50.3871094]]}},{"type":"Feature","properties":{"id":"way/37240222","power":"line","kv":380,"name":null,"operator":"RWE"},"geometry":{"type":"LineString","coordinates":[[7.5977456,50.3860037],[7.6020146,50.3850234],[7.6082281,50.3850211],[7.6156472,50.3850126],[7.6226472,50.3849826],[7.6269968,50.3849768],[7.6339583,50.3849649],[7.639526,50.385224],[7.6420633,50.3853396]]}},{"type":"Feature","properties":{"id":"way/37240231","power":"line","kv":0,"name":null,"operator":null},"geometry":{"type":"LineString","coordinates":[[7.5953593,50.3861474],[7.5944665,50.3862093],[7.5934137,50.3862815],[7.5920664,50.3865708]]}},{"type":"Feature","properties":{"id":"way/37240232","power":"line","kv":110,"name":null,"operator":null},"geometry":{"type":"LineString","coordinates":[[7.5917576,50.3862263],[7.5918395,50.3862209],[7.5921696,50.3861979],[7.5922881,50.3861892],[7.5929303,50.3861451]]}},{"type":"Feature","properties":{"id":"way/37892343","power":"line","kv":380,"name":null,"operator":null},"geometry":{"type":"LineString","coordinates":[[7.6613329,50.3862376],[7.6563081,50.3859872],[7.650715,50.385735],[7.6452747,50.3854796],[7.6420633,50.3853396]]}},{"type":"Feature","properties":{"id":"way/83945226","power":"line","kv":110,"name":null,"operator":"RWE"},"geometry":{"type":"LineString","coordinates":[[7.6138236,50.4179141],[7.6159304,50.4192592],[7.6183777,50.4208244],[7.6207051,50.4223404],[7.623265,50.4239995],[7.6255861,50.4255024],[7.6279427,50.426987],[7.6304501,50.4286238],[7.6330073,50.4302468],[7.6354948,50.4318604],[7.6378677,50.433374],[7.6402997,50.4349459],[7.6429159,50.436627]]}},{"type":"Feature","properties":{"id":"way/152403711","power":"substation","kv":110,"name":"Station Urbar","operator":null},"geometry":{"type":"Polygon","coordinates":[[[7.6407236,50.3846527],[7.6409372,50.384927],[7.6409277,50.3856251],[7.6400846,50.385631],[7.6400576,50.3855208],[7.6400601,50.3853107],[7.6400628,50.3850787],[7.6399749,50.3848477],[7.6399774,50.384757],[7.6401616,50.3847612],[7.6402499,50.3847606],[7.6402593,50.3847112],[7.6403293,50.3846754],[7.6407236,50.3846527]]]}},{"type":"Feature","properties":{"id":"way/160511612","power":"line","kv":380,"name":null,"operator":null},"geometry":{"type":"LineString","coordinates":[[7.5929303,50.3861451],[7.5933887,50.3861035],[7.5939755,50.386062],[7.5940988,50.3860534]]}},{"type":"Feature","properties":{"id":"way/160584794","power":"substation","kv":380,"name":"Station Koblenz","operator":"Amprion"},"geometry":{"type":"Polygon","coordinates":[[[7.5930215,50.3875045],[7.5929801,50.3875058],[7.5929559,50.3875069],[7.5926408,50.3875222],[7.5916673,50.3866921],[7.591288,50.3863924],[7.591114,50.3861213],[7.5909557,50.3861152],[7.5897103,50.3850927],[7.5902586,50.385051],[7.5903481,50.3850996],[7.5905909,50.3850826],[7.590699,50.3850732],[7.5909465,50.3850518],[7.5914183,50.385019],[7.5914158,50.3850044],[7.5915628,50.3849942],[7.5915653,50.3850091],[7.5916862,50.385],[7.5917979,50.3849923],[7.5929712,50.3848631],[7.5935129,50.3847788],[7.5953056,50.3845164],[7.5953716,50.3849109],[7.5955871,50.386199],[7.5957156,50.3869672],[7.5952584,50.3872158],[7.5946181,50.3875607],[7.5942922,50.3872938],[7.5942128,50.3871744],[7.5941691,50.387193],[7.594097,50.3872305],[7.5936412,50.3868813],[7.5929576,50.3871762],[7.5930215,50.3875045]]]}},{"type":"Feature","properties":{"id":"way/160584798","power":"line","kv":110,"name":null,"operator":"RWE"},"geometry":{"type":"LineString","coordinates":[[7.5921042,50.3857988],[7.5921222,50.385909],[7.5921339,50.3859841],[7.5921425,50.3860443],[7.59215,50.386098],[7.5921585,50.386145],[7.5921696,50.3861979],[7.5921781,50.3862548],[7.5921851,50.3863137],[7.5921949,50.3863604],[7.5922021,50.3864058],[7.5922069,50.386437],[7.5922133,50.3864791],[7.5922181,50.3865143],[7.5922263,50.3865735],[7.5922343,50.3866082],[7.5922531,50.3867585]]}},{"type":"Feature","properties":{"id":"way/160584799","power":"line","kv":110,"name":null,"operator":"RWE"},"geometry":{"type":"LineString","coordinates":[[7.5917783,50.3858254],[7.5917939,50.3859311],[7.5918125,50.3860084],[7.5918212,50.3860718],[7.5918233,50.3861189],[7.5918331,50.3861636],[7.5918395,50.3862209],[7.5918513,50.3862749],[7.5918602,50.3863287],[7.591869,50.3863821],[7.5918768,50.3864293],[7.5918809,50.3864573],[7.5918875,50.386502],[7.5918947,50.3865394],[7.5919026,50.3865945],[7.5919101,50.3866309],[7.5920348,50.3868422],[7.5923808,50.3868216],[7.5925394,50.3868104],[7.5926271,50.3868042],[7.5927002,50.386799]]}},{"type":"Feature","properties":{"id":"way/160584800","power":"line","kv":110,"name":null,"operator":"RWE"},"geometry":{"type":"LineString","coordinates":[[7.5918875,50.386502],[7.5922133,50.3864791]]}},{"type":"Feature","properties":{"id":"way/160584803","power":"line","kv":110,"name":null,"operator":"RWE"},"geometry":{"type":"LineString","coordinates":[[7.5922403,50.3859825],[7.5922553,50.3860927],[7.59215,50.386098],[7.5918233,50.3861189]]}},{"type":"Feature","properties":{"id":"way/160584805","power":"line","kv":110,"name":null,"operator":"RWE"},"geometry":{"type":"LineString","coordinates":[[7.5922403,50.3859825],[7.5921339,50.3859841],[7.5918125,50.3860084],[7.591714,50.3860109]]}},{"type":"Feature","properties":{"id":"way/160584806","power":"line","kv":110,"name":null,"operator":"RWE"},"geometry":{"type":"LineString","coordinates":[[7.5919026,50.3865945],[7.5922263,50.3865735],[7.5927344,50.3865472],[7.5927395,50.386598]]}},{"type":"Feature","properties":{"id":"way/160584807","power":"line","kv":110,"name":null,"operator":"RWE"},"geometry":{"type":"LineString","coordinates":[[7.5918602,50.3863287],[7.5921851,50.3863137],[7.5922835,50.3863075],[7.5926859,50.3862869],[7.5926935,50.3863608]]}},{"type":"Feature","properties":{"id":"way/160584808","power":"line","kv":110,"name":null,"operator":"RWE"},"geometry":{"type":"LineString","coordinates":[[7.591464,50.3861935],[7.5899941,50.3861166]]}},{"type":"Feature","properties":{"id":"way/160584809","power":"line","kv":110,"name":null,"operator":"RWE"},"geometry":{"type":"LineString","coordinates":[[7.5920857,50.3875702],[7.592237,50.3875004],[7.5925453,50.3869432],[7.5925394,50.3868104],[7.5925283,50.3867439],[7.5925193,50.3866903]]}},{"type":"Feature","properties":{"id":"way/160584810","power":"line","kv":110,"name":null,"operator":"RWE"},"geometry":{"type":"LineString","coordinates":[[7.5914469,50.3860992],[7.5899941,50.3861166]]}},{"type":"Feature","properties":{"id":"way/160584811","power":"line","kv":110,"name":null,"operator":"RWE"},"geometry":{"type":"LineString","coordinates":[[7.5921949,50.3863604],[7.591869,50.3863821],[7.5917636,50.3863979],[7.5915042,50.3864159]]}},{"type":"Feature","properties":{"id":"way/160584812","power":"line","kv":110,"name":null,"operator":"RWE"},"geometry":{"type":"LineString","coordinates":[[7.5922295,50.3858997],[7.5921222,50.385909],[7.5917939,50.3859311],[7.5916927,50.3859385]]}},{"type":"Feature","properties":{"id":"way/160584813","power":"line","kv":110,"name":null,"operator":"RWE"},"geometry":{"type":"LineString","coordinates":[[7.5923649,50.3867037],[7.5923713,50.3867511],[7.5923808,50.3868216],[7.5924063,50.3869538],[7.5920836,50.3873811],[7.591941,50.3874504]]}},{"type":"Feature","properties":{"id":"way/160584814","power":"line","kv":110,"name":null,"operator":"RWE"},"geometry":{"type":"LineString","coordinates":[[7.5925291,50.386418],[7.5934378,50.386453],[7.5944846,50.3863683],[7.5953827,50.3863002],[7.5977456,50.3860037]]}},{"type":"Feature","properties":{"id":"way/160584817","power":"line","kv":110,"name":null,"operator":"RWE"},"geometry":{"type":"LineString","coordinates":[[7.5899941,50.3861166],[7.5869408,50.3853769],[7.5822577,50.3844908],[7.5788915,50.3845259],[7.5752703,50.3845536],[7.5713623,50.3845934]]}},{"type":"Feature","properties":{"id":"way/198381585","power":"substation","kv":110,"name":null,"operator":null},"geometry":{"type":"Polygon","coordinates":[[[7.5914299,50.3875062],[7.5919816,50.387237],[7.5924127,50.3876469],[7.5918922,50.387876],[7.5918539,50.3878454],[7.5914299,50.3875062]]]}},{"type":"Feature","properties":{"id":"way/207793423","power":"line","kv":110,"name":null,"operator":"RWE"},"geometry":{"type":"LineString","coordinates":[[7.5899941,50.3861166],[7.591484,50.386304]]}},{"type":"Feature","properties":{"id":"way/207793427","power":"line","kv":110,"name":null,"operator":"RWE"},"geometry":{"type":"LineString","coordinates":[[7.5899941,50.3861166],[7.5915042,50.3864159]]}},{"type":"Feature","properties":{"id":"way/268979607","power":"minor_line","kv":0,"name":null,"operator":null},"geometry":{"type":"LineString","coordinates":[[7.6522587,50.3854533],[7.6540276,50.3855645],[7.6563919,50.3866113],[7.6582882,50.387451],[7.6603863,50.3883765],[7.6636258,50.3898075],[7.6655597,50.3906762],[7.6668184,50.3912278]]}},{"type":"Feature","properties":{"id":"way/268979611","power":"line","kv":110,"name":null,"operator":null},"geometry":{"type":"LineString","coordinates":[[7.6420633,50.3853396],[7.6408244,50.3855065],[7.6406526,50.3855059]]}},{"type":"Feature","properties":{"id":"way/268979613","power":"minor_line","kv":0,"name":null,"operator":null},"geometry":{"type":"LineString","coordinates":[[7.6406976,50.3846633],[7.6422513,50.3849746],[7.6452345,50.3851221],[7.6488796,50.3852914],[7.6522587,50.3854533]]}},{"type":"Feature","properties":{"id":"way/268979614","power":"line","kv":110,"name":null,"operator":null},"geometry":{"type":"LineString","coordinates":[[7.6406615,50.3849862],[7.6408378,50.3849849],[7.6420633,50.3853396]]}},{"type":"Feature","properties":{"id":"way/268979621","power":"minor_line","kv":0,"name":null,"operator":null},"geometry":{"type":"LineString","coordinates":[[7.6522587,50.3854533],[7.6540171,50.3855108],[7.6560411,50.3856403],[7.658439,50.3858165],[7.6600934,50.3858725],[7.6622182,50.3859738],[7.6644337,50.3860593],[7.6667002,50.3861602],[7.6680896,50.3858319]]}},{"type":"Feature","properties":{"id":"way/381950145","power":"line","kv":380,"name":null,"operator":null},"geometry":{"type":"LineString","coordinates":[[7.5938192,50.3852994],[7.5944333,50.3852607],[7.5950366,50.3852175]]}},{"type":"Feature","properties":{"id":"way/381950149","power":"line","kv":380,"name":null,"operator":null},"geometry":{"type":"LineString","coordinates":[[7.5947946,50.385885],[7.5947738,50.3857452],[7.5946649,50.3850131],[7.5946489,50.3849056]]}},{"type":"Feature","properties":{"id":"way/381950152","power":"line","kv":110,"name":null,"operator":"RWE"},"geometry":{"type":"LineString","coordinates":[[7.5925394,50.3864832],[7.5934437,50.3864948],[7.5944911,50.3864249],[7.5953926,50.3863645],[7.5977456,50.3860037]]}},{"type":"Feature","properties":{"id":"way/381950153","power":"line","kv":380,"name":null,"operator":null},"geometry":{"type":"LineString","coordinates":[[7.5945237,50.3858299],[7.5945107,50.3857613],[7.5944621,50.3855038],[7.5944333,50.3852607],[7.5943892,50.3850328],[7.5943694,50.3849299]]}},{"type":"Feature","properties":{"id":"way/381950154","power":"line","kv":380,"name":null,"operator":"RWE"},"geometry":{"type":"LineString","coordinates":[[7.5904618,50.3871094],[7.5943037,50.3871373]]}},{"type":"Feature","properties":{"id":"way/381950155","power":"line","kv":380,"name":null,"operator":"RWE"},"geometry":{"type":"LineString","coordinates":[[7.5949661,50.3847983],[7.5939906,50.3841492],[7.5895332,50.3847901],[7.587026,50.3848398],[7.5827034,50.383951],[7.5773998,50.3838443],[7.5719499,50.3838342],[7.5657274,50.3835253],[7.5615976,50.381352],[7.5581292,50.3795522],[7.5545238,50.377666],[7.5511521,50.3758314],[7.5471468,50.3738064],[7.5443194,50.3720878],[7.541608,50.3703629],[7.5376575,50.3678818],[7.5343766,50.3657738],[7.5309732,50.3636585],[7.5275912,50.3614914],[7.5248529,50.3597627],[7.5212789,50.3575071],[7.5183746,50.3556886],[7.5149403,50.3534975],[7.5117146,50.3514631],[7.5085342,50.34945],[7.505185,50.3473366],[7.5020613,50.3453414],[7.5007765,50.3450598]]}},{"type":"Feature","properties":{"id":"way/390684576","power":"line","kv":110,"name":"110kV Eberhahn West + Ems Ost","operator":"RWE"},"geometry":{"type":"LineString","coordinates":[[7.4810954,50.4231099],[7.4845607,50.4239445],[7.4877937,50.4247097],[7.4911932,50.4255218],[7.4945494,50.4262829],[7.4977455,50.4270898],[7.5009787,50.4278635],[7.504042,50.428594],[7.507189,50.4293481],[7.5103232,50.4300969],[7.5133883,50.4308304],[7.5156785,50.4316719],[7.5180271,50.4325165],[7.5202177,50.4335667],[7.5223371,50.4345755],[7.5255311,50.4343694],[7.5286143,50.4341592],[7.5319101,50.4339463],[7.5351491,50.4337366],[7.5382171,50.4335308],[7.5405989,50.4333801],[7.5443475,50.4331426],[7.5463451,50.4330125],[7.5498242,50.4330476],[7.5532588,50.4330957],[7.5565226,50.4331254],[7.5594358,50.4331499],[7.5623294,50.4331964],[7.5652488,50.4332195],[7.5674881,50.4332422],[7.5706911,50.4332902],[7.5724461,50.4335828],[7.5754119,50.4329922],[7.5778336,50.4320637],[7.58001,50.4312105],[7.5821381,50.4303734],[7.5843541,50.4295271],[7.5859539,50.4259535],[7.5885342,50.4247386],[7.5908591,50.423583],[7.5941384,50.4227762],[7.5973683,50.4219804],[7.600714,50.4211465],[7.6040111,50.4203423],[7.6072464,50.4195377],[7.6104515,50.4187448],[7.6138236,50.4179141]]}},{"type":"Feature","properties":{"id":"way/390684583","power":"line","kv":110,"name":null,"operator":"RWE"},"geometry":{"type":"LineString","coordinates":[[7.6138236,50.4179141],[7.6186844,50.4166973],[7.6197298,50.4164356],[7.6226998,50.4157169],[7.6256502,50.4149857],[7.6286013,50.4142512],[7.6315038,50.4135385],[7.6354815,50.4112536],[7.6361679,50.4095333],[7.6368135,50.407792],[7.6369716,50.4073698],[7.6381239,50.4042934],[7.6381864,50.4016711],[7.638486,50.399156],[7.6411432,50.3977237],[7.6436437,50.3962932],[7.6461602,50.3947538],[7.6487248,50.3932343],[7.6514077,50.3917557],[7.6555993,50.3893197],[7.6580824,50.3878975],[7.6599083,50.3868429],[7.6613329,50.3862376]]}},{"type":"Feature","properties":{"id":"way/488215777","power":"minor_line","kv":0,"name":null,"operator":null},"geometry":{"type":"LineString","coordinates":[[7.6399793,50.3847464],[7.6389578,50.3841171],[7.6376062,50.3832342],[7.6363753,50.3824592],[7.6346825,50.3813624],[7.6335667,50.3815894],[7.63204,50.3819223],[7.6310619,50.3821294],[7.6273015,50.383636]]}},{"type":"Feature","properties":{"id":"way/605742000","power":"substation","kv":0,"name":null,"operator":null},"geometry":{"type":"Polygon","coordinates":[[[7.5901429,50.3912411],[7.5901628,50.3912298],[7.5901282,50.3912052],[7.5901084,50.3912166],[7.5901429,50.3912411]]]}},{"type":"Feature","properties":{"id":"way/930453120","power":"minor_line","kv":0,"name":null,"operator":null},"geometry":{"type":"LineString","coordinates":[[7.6417071,50.4373052],[7.6402364,50.4363477],[7.6383776,50.4351437],[7.6366691,50.4340572],[7.6346064,50.4327194],[7.6327906,50.4315508],[7.6308728,50.4304368],[7.6291213,50.4293808],[7.6272143,50.4287418],[7.625149,50.4280446],[7.6230971,50.4273577],[7.6211659,50.4265495],[7.6193152,50.4257549],[7.6173571,50.4249245],[7.6153294,50.4240666],[7.6132507,50.4231917]]}},{"type":"Feature","properties":{"id":"way/930453121","power":"minor_line","kv":0,"name":null,"operator":null},"geometry":{"type":"LineString","coordinates":[[7.6132507,50.4231917],[7.6112819,50.4225799],[7.6091603,50.4218964],[7.6068375,50.4211479],[7.6045952,50.4204233],[7.6024602,50.4197397],[7.6004539,50.4194577],[7.5979084,50.4190971],[7.5955991,50.4187681],[7.5940014,50.418547]]}},{"type":"Feature","properties":{"id":"way/930453122","power":"minor_line","kv":0,"name":null,"operator":null},"geometry":{"type":"LineString","coordinates":[[7.6087037,50.4172714],[7.6094446,50.4182528],[7.6102305,50.4192441],[7.6109118,50.420143],[7.611644,50.4210915],[7.6123897,50.4220587],[7.6132507,50.4231917]]}},{"type":"Feature","properties":{"id":"way/930453123","power":"substation","kv":0,"name":null,"operator":null},"geometry":{"type":"Polygon","coordinates":[[[7.5939905,50.4185637],[7.5940014,50.418547],[7.5940108,50.4185324],[7.5939687,50.4185213],[7.5939596,50.4185355],[7.5939485,50.4185526],[7.5939681,50.4185578],[7.5939905,50.4185637]]]}},{"type":"Feature","properties":{"id":"way/930453124","power":"minor_line","kv":0,"name":null,"operator":null},"geometry":{"type":"LineString","coordinates":[[7.5880165,50.4245651],[7.5893214,50.4239961],[7.5904506,50.4234586],[7.5912204,50.422453],[7.5919995,50.421396],[7.5926942,50.4205099],[7.5935311,50.4194649]]}},{"type":"Feature","properties":{"id":"way/930453125","power":"minor_line","kv":0,"name":null,"operator":null},"geometry":{"type":"LineString","coordinates":[[7.5935311,50.4194649],[7.5939681,50.4185578]]}},{"type":"Feature","properties":{"id":"way/930453127","power":"minor_line","kv":0,"name":null,"operator":null},"geometry":{"type":"LineString","coordinates":[[7.5935311,50.4194649],[7.5946308,50.4201561],[7.5959601,50.4209803],[7.5972299,50.4217361],[7.5984814,50.42252],[7.5998311,50.4233576],[7.5993799,50.4258164],[7.5994148,50.426734],[7.5994711,50.4276499],[7.5995175,50.4285391]]}},{"type":"Feature","properties":{"id":"way/947873078","power":"minor_line","kv":0,"name":null,"operator":null},"geometry":{"type":"LineString","coordinates":[[7.6668135,50.391244],[7.6653591,50.3919839],[7.6646295,50.3931749],[7.6631194,50.3956808],[7.6614567,50.3957473],[7.6599457,50.3958077],[7.6584828,50.395854],[7.6570653,50.3959124],[7.6554544,50.3963776],[7.6539175,50.396825],[7.6544893,50.3985554],[7.654013,50.3992425],[7.6527822,50.3994436],[7.6515006,50.3996222],[7.6501811,50.3998312]]}},{"type":"Feature","properties":{"id":"way/1090002570","power":"line","kv":110,"name":null,"operator":null},"geometry":{"type":"LineString","coordinates":[[7.6402274,50.3855195],[7.6402256,50.3855921],[7.6406526,50.3855921]]}},{"type":"Feature","properties":{"id":"way/1090002571","power":"line","kv":110,"name":null,"operator":null},"geometry":{"type":"LineString","coordinates":[[7.6402416,50.3849772],[7.640238,50.3849034],[7.6406633,50.3849091]]}},{"type":"Feature","properties":{"id":"way/1090002572","power":"line","kv":110,"name":null,"operator":null},"geometry":{"type":"LineString","coordinates":[[7.6406526,50.3855921],[7.6406526,50.3855059],[7.6406615,50.3849862],[7.6406633,50.3849091]]}},{"type":"Feature","properties":{"id":"way/1090002573","power":"line","kv":380,"name":null,"operator":null},"geometry":{"type":"LineString","coordinates":[[7.5950063,50.3870218],[7.5951638,50.3869633],[7.5977456,50.3860037]]}},{"type":"Feature","properties":{"id":"way/1090002574","power":"line","kv":380,"name":null,"operator":null},"geometry":{"type":"LineString","coordinates":[[7.5946829,50.3872223],[7.594585,50.3871073],[7.5943658,50.3868501],[7.5942325,50.385931],[7.5942285,50.3859044]]}},{"type":"Feature","properties":{"id":"way/1090002575","power":"line","kv":380,"name":null,"operator":null},"geometry":{"type":"LineString","coordinates":[[7.5952199,50.3870339],[7.5951638,50.3869633],[7.5948955,50.3866318],[7.5947946,50.385885]]}},{"type":"Feature","properties":{"id":"way/1090002577","power":"line","kv":0,"name":null,"operator":null},"geometry":{"type":"LineString","coordinates":[[7.5943037,50.3871373],[7.5977456,50.3860037]]}},{"type":"Feature","properties":{"id":"way/1090002579","power":"line","kv":110,"name":null,"operator":null},"geometry":{"type":"LineString","coordinates":[[7.5920636,50.3867689],[7.5922531,50.3867585],[7.5923713,50.3867511],[7.5925283,50.3867439],[7.5926174,50.3867392],[7.5927007,50.3867348]]}},{"type":"Feature","properties":{"id":"way/1090002580","power":"line","kv":110,"name":null,"operator":null},"geometry":{"type":"LineString","coordinates":[[7.5927623,50.3869883],[7.592753,50.3869009],[7.5926402,50.386909],[7.5926271,50.3868042],[7.5926174,50.3867392]]}},{"type":"Feature","properties":{"id":"way/1090002581","power":"line","kv":380,"name":null,"operator":null},"geometry":{"type":"LineString","coordinates":[[7.5939755,50.386062],[7.5939356,50.3858057],[7.5938216,50.3850738],[7.5938027,50.3849522]]}},{"type":"Feature","properties":{"id":"way/1090002582","power":"line","kv":380,"name":null,"operator":null},"geometry":{"type":"LineString","coordinates":[[7.5938216,50.3850738],[7.5941002,50.3850512],[7.5943892,50.3850328],[7.5946649,50.3850131]]}},{"type":"Feature","properties":{"id":"way/1090002583","power":"line","kv":380,"name":null,"operator":null},"geometry":{"type":"LineString","coordinates":[[7.5939356,50.3858057],[7.5942105,50.3857846],[7.5945107,50.3857613],[7.5947738,50.3857452]]}},{"type":"Feature","properties":{"id":"way/1201011240","power":"minor_line","kv":0,"name":null,"operator":null},"geometry":{"type":"LineString","coordinates":[[7.5863736,50.4130427],[7.5877097,50.4138954]]}},{"type":"Feature","properties":{"id":"way/1201011241","power":"minor_line","kv":0,"name":null,"operator":null},"geometry":{"type":"LineString","coordinates":[[7.5876432,50.4139285],[7.5863059,50.4130688]]}},{"type":"Feature","properties":{"id":"way/1201012663","power":"minor_line","kv":0,"name":null,"operator":null},"geometry":{"type":"LineString","coordinates":[[7.5939596,50.4185355],[7.5931289,50.4179396],[7.5920012,50.4171366]]}},{"type":"Feature","properties":{"id":"way/1225511834","power":"line","kv":110,"name":null,"operator":"RWE"},"geometry":{"type":"LineString","coordinates":[[7.5921425,50.3860443],[7.5918212,50.3860718],[7.5917117,50.3860777],[7.5914469,50.3860992]]}},{"type":"Feature","properties":{"id":"way/1225511835","power":"line","kv":110,"name":null,"operator":"RWE"},"geometry":{"type":"LineString","coordinates":[[7.5921585,50.386145],[7.5918331,50.3861636],[7.5917196,50.3861705],[7.591464,50.3861935]]}},{"type":"Feature","properties":{"id":"way/1225511836","power":"line","kv":110,"name":null,"operator":"RWE"},"geometry":{"type":"LineString","coordinates":[[7.591484,50.386304],[7.5918513,50.3862749]]}},{"type":"Feature","properties":{"id":"way/1225511837","power":"line","kv":110,"name":null,"operator":"RWE"},"geometry":{"type":"LineString","coordinates":[[7.5918809,50.3864573],[7.5922069,50.386437],[7.5925291,50.386418]]}},{"type":"Feature","properties":{"id":"way/1225511838","power":"line","kv":110,"name":null,"operator":"RWE"},"geometry":{"type":"LineString","coordinates":[[7.5918947,50.3865394],[7.5922181,50.3865143],[7.5925394,50.3864832]]}},{"type":"Feature","properties":{"id":"way/1367286926","power":"minor_line","kv":0,"name":null,"operator":null},"geometry":{"type":"LineString","coordinates":[[7.6021243,50.4166167],[7.6036479,50.4167022],[7.6056704,50.4173585],[7.6064875,50.4168012],[7.6067366,50.4159779]]}},{"type":"Feature","properties":{"id":"way/1391034504","power":"substation","kv":0,"name":null,"operator":null},"geometry":{"type":"Polygon","coordinates":[[[7.5987932,50.4143307],[7.5988052,50.4143047],[7.5988509,50.4143132],[7.5988388,50.4143393],[7.5987932,50.4143307]]]}},{"type":"Feature","properties":{"id":"way/1391034505","power":"substation","kv":0,"name":null,"operator":null},"geometry":{"type":"Polygon","coordinates":[[[7.6067169,50.4159734],[7.6067366,50.4159779],[7.6067605,50.4159833],[7.6067764,50.4159548],[7.6067328,50.4159449],[7.6067169,50.4159734]]]}},{"type":"Feature","properties":{"id":"way/1444126710","power":"line","kv":380,"name":null,"operator":null},"geometry":{"type":"LineString","coordinates":[[7.5943037,50.3871373],[7.594585,50.3871073],[7.594828,50.3870783]]}},{"type":"Feature","properties":{"id":"way/1444126711","power":"line","kv":0,"name":null,"operator":null},"geometry":{"type":"LineString","coordinates":[[7.594828,50.3870783],[7.5950063,50.3870218]]}},{"type":"Feature","properties":{"id":"way/1444126712","power":"line","kv":380,"name":null,"operator":null},"geometry":{"type":"LineString","coordinates":[[7.5942285,50.3859044],[7.5942105,50.3857846],[7.5941002,50.3850512],[7.5940832,50.3849386]]}},{"type":"Feature","properties":{"id":"way/1444126713","power":"line","kv":380,"name":null,"operator":"RWE"},"geometry":{"type":"LineString","coordinates":[[7.5950553,50.3853461],[7.5950366,50.3852175],[7.5949661,50.3847983]]}},{"type":"Feature","properties":{"id":"way/1444126714","power":"line","kv":0,"name":null,"operator":null},"geometry":{"type":"LineString","coordinates":[[7.5940988,50.3860534],[7.5944459,50.3860293]]}},{"type":"Feature","properties":{"id":"way/1461314263","power":"minor_line","kv":0,"name":null,"operator":null},"geometry":{"type":"LineString","coordinates":[[7.6274374,50.3852447],[7.6277185,50.3852508],[7.6310445,50.3884926]]}},{"type":"Feature","properties":{"id":"way/1461314264","power":"minor_line","kv":0,"name":null,"operator":null},"geometry":{"type":"LineString","coordinates":[[7.6289645,50.385475],[7.6277185,50.3852508]]}},{"type":"Feature","properties":{"id":"way/1464343519","power":"minor_line","kv":15,"name":null,"operator":null},"geometry":{"type":"LineString","coordinates":[[7.5803652,50.3814398],[7.5812852,50.381096],[7.5821878,50.3807608],[7.5831105,50.3804187],[7.5840171,50.380086],[7.5849719,50.379726],[7.5858343,50.3794001],[7.5867462,50.3790683],[7.5876059,50.378751],[7.5884521,50.3783901],[7.5890355,50.3781575],[7.5895813,50.3779077],[7.5899367,50.3777469],[7.5902653,50.3775708],[7.590626,50.3773561],[7.5909238,50.3771269],[7.591487,50.3766129],[7.5918505,50.3761339],[7.5923051,50.3757319],[7.5926793,50.3751341],[7.5929193,50.3745174]]}}]}